[{"OBJECT_NAME":"ONEWEB-0244","OBJECT_ID":"2021-045K","EPOCH":"2026-03-09T23:19:17.319072","MEAN_MOTION":13.15547492,"ECCENTRICITY":0.0001602,"INCLINATION":87.8949,"RA_OF_ASC_NODE":278.9816,"ARG_OF_PERICENTER":94.8917,"MEAN_ANOMALY":265.2397,"EPHEMERIS_TYPE":0,"CLASSIFICATION_TYPE":"U","NORAD_CAT_ID":48776,"ELEMENT_SET_NO":999,"REV_AT_EPOCH":23192,"BSTAR":6.3754359e-5,"MEAN_MOTION_DOT":3.7e-7,"MEAN_MOTION_DDOT":0},{"OBJECT_NAME":"COSMOS 2499 DEB","OBJECT_ID":"2014-028AP","EPOCH":"2026-03-07T23:05:13.152192","MEAN_MOTION":12.79541671,"ECCENTRICITY":0.0190197,"INCLINATION":82.2375,"RA_OF_ASC_NODE":304.4946,"ARG_OF_PERICENTER":274.4207,"MEAN_ANOMALY":83.5186,"EPHEMERIS_TYPE":0,"CLASSIFICATION_TYPE":"U","NORAD_CAT_ID":55727,"ELEMENT_SET_NO":999,"REV_AT_EPOCH":14654,"BSTAR":0.00051326857,"MEAN_MOTION_DOT":1.34e-6,"MEAN_MOTION_DDOT":0}]
